0 SL-16 DEB
1 18412U 87041E   24187.57023216  .00000150  00000-0  17199-3 0  9990
2 18412  71.0284  12.8054 0192124 172.1398 188.2794 13.76524378864700
0 COSMOS 1375 DEB
1 18413U 82055BC  24186.75027562  .00000591  00000-0  74743-3 0  9995
2 18413  65.8242 286.0814 0070621 138.8827  21.9960 13.70134774927291
0 COSMOS 1375 DEB
1 18414U 82055BD  24187.46485369  .00000357  00000-0  41082-3 0  9998
2 18414  65.8292 204.8428 0026594 256.6773 220.8146 13.81504134946857
0 COSMOS 1375 DEB
1 18415U 82055BE  24187.50817428  .00000734  00000-0  88569-3 0  9999
2 18415  65.8263 176.1785 0057711  96.2369 349.8086 13.71931642929401
0 SL-16 DEB
1 18416U 87027C   24187.53891968  .00000145  00000-0  16656-3 0  9992
2 18416  71.0334 219.1894 0186135  34.6255  79.9429 13.77233898873697
0 SL-16 DEB
1 18417U 87027D   24187.55871774  .00000197  00000-0  21982-3 0  9993
2 18417  71.0000 301.0237 0202875 209.3932 164.0342 13.74328123869736
0 THORAD AGENA D DEB
1 18418U 70025PL  24187.31253868  .00001679  00000-0  17501-2 0  9993
2 18418 100.1522 297.8004 0000797 109.9090 316.1458 13.77037930692528
0 COSMOS 1892
1 18421U 87088A   24187.59859043  .00014228  00000-0  41420-3 0  9993
2 18421  82.4911 238.8864 0008444 288.3909  71.6415 15.35250019  9498
0 SL-14 R/B
1 18422U 87088B   24187.55749382  .00000740  00000-0  85516-4 0  9993
2 18422  82.5118 282.5785 0017989 230.1858 129.7774 14.84191476962472
0 SCOUT G-1 DEB
1 18426U 86088C   24187.38248828  .00000309  00000-0  31269-3 0  9992
2 18426  89.1293 318.6319 0070927 133.3032 291.9319 13.73459444883227
0 OPS 4682 DEB
1 18427U 65027AB  24187.46237821  .00000606  00000-0  18858-2 0  9991
2 18427  90.2486 347.0213 0018558 329.2173  87.9974 13.03695785865557
0 COSMOS 839 DEB
1 18428U 76067BM  24187.00714233  .00000573  00000-0  17449-2 0  9993
2 18428  65.7288 142.6415 0780932 192.3628 305.4208 12.35824647514772
0 DELTA 1 DEB
1 18429U 76077EZ  24187.11213829  .00000135  00000-0  19026-2 0  9999
2 18429 102.5765 250.6716 0227159 330.8382  58.5447 12.06289467529815
0 COSMOS 252 DEB
1 18431U 68097EJ  24187.32236989  .00001508  00000-0  55117-3 0  9997
2 18431  62.3507 120.2840 0860737  10.0911 351.6201 13.18409229354405
0 COSMOS 1894
1 18443U 87091A   24187.44178819  .00000067  00000-0  00000-0 0  9992
2 18443  11.7760 330.3295 0002218  80.0705 254.1700  1.00367487113675
0 SL-12 R/B(2)
1 18446U 87091D   24187.45919713 -.00000086  00000-0  00000-0 0  9994
2 18446  11.8031 330.5069 0021363 238.8484 133.6420  1.00150102122876
0 DELTA 1 DEB
1 18463U 76077FA  24186.84387086 -.00000040  00000-0  43763-4 0  9996
2 18463 102.4849 152.6808 0095127  80.3455 310.0083 12.23574867141276
0 DELTA 1 DEB
1 18467U 78026HE  24187.29601227  .00000674  00000-0  29671-3 0  9995
2 18467  98.8573 195.3980 0092944 302.0543  70.7532 14.24532220 43408
0 COSMOS 249 DEB
1 18468U 68091DD  24187.04204600  .00000314  00000-0  52850-3 0  9990
2 18468  62.2659  65.2006 0748049 296.2310  56.3651 12.79736900508231
0 DELTA 1 DEB
1 18469U 78026HF  24186.84069300  .00000456  00000-0  35199-3 0  9997
2 18469  98.7954 151.2273 0046773   9.0993  21.6201 13.97317282  6089
0 DELTA 1 DEB
1 18470U 73086GU  24186.80907461 -.00000033  00000-0  75134-4 0  9991
2 18470 101.7640  35.9507 0180045 270.0559 101.7940 12.06631563733486
0 COSMOS 839 DEB *
1 18471U 76067BN  24187.56349844  .00001247  00000-0  27222-2 0  9993
2 18471  65.7567 343.3743 0968401 165.4478 285.6765 12.20430911640304
0 DELTA 1 DEB
1 18472U 73086GV  24186.64647645 -.00000017  00000-0  12183-3 0  9996
2 18472 101.1452 240.6818 0015254  74.1470  80.8613 12.77520210833385
0 DELTA 1 DEB
1 18475U 75004HK  24186.71836701  .00000631  00000-0  14882-3 0  9991
2 18475  97.8178 188.5103 0046600 280.2753  79.3194 14.56767972 44102
0 SL-16 DEB
1 18476U 87041F   24187.61118782  .00000210  00000-0  23545-3 0  9997
2 18476  70.9888 121.0103 0208358 340.8942 198.2905 13.72907716860205
0 COSMOS 1375 DEB
1 18477U 82055BF  24186.61917348  .00007328  00000-0  28081-2 0  9998
2 18477  65.8239  16.4335 0019496 338.3114  21.7149 14.30978619975504
0 OPS 4682 DEB
1 18479U 65027AC  24186.69646135  .00000339  00000-0  11436-2 0  9992
2 18479  90.2394 350.2599 0031149 136.2410 239.3883 12.97143771855372
0 COSMOS 252 DEB
1 18490U 68097EN  24187.46254307  .00002869  00000-0  58115-3 0  9993
2 18490  62.7466 141.8046 0432067 228.3244 128.0079 14.17782701611076
0 COSMOS 970 DEB
1 18494U 77121BQ  24187.08784435  .00000113  00000-0  23850-3 0  9991
2 18494  65.8206 109.0082 0124354 296.6559  76.4673 13.61033539770557
0 SCOUT A-1 DEB
1 18496U 73081D   24187.57487465  .00000324  00000-0  27998-3 0  9992
2 18496  89.9560 118.1145 0134851 207.4870 280.5986 13.80566421829124
0 SL-8 DEB *
1 18500U 75112E   24187.34587132  .00002789  00000-0  64925-3 0  9990
2 18500  74.0418 157.0086 0014008 233.2022 277.6403 14.55279181 70676
0 SL-8 DEB *
1 18501U 78019E   24187.48672632  .00004857  00000-0  82391-3 0  9990
2 18501  74.0568  83.3686 0007138  66.8387 349.4134 14.69477874 82878
0 SL-8 DEB *
1 18502U 82051D   24187.39985148  .00002558  00000-0  58933-3 0  9992
2 18502  74.0617  41.3080 0000967 167.9303 254.4273 14.55853786 67709
0 SL-8 DEB *
1 18504U 76098E   24187.45487824  .00008348  00000-0  96392-3 0  9997
2 18504  74.0319 183.9480 0009012 189.6826 323.5040 14.85718105 89014
0 COSMOS 1275 DEB
1 18505U 81053LS  24186.57912655  .00002593  00000-0  18424-2 0  9997
2 18505  83.2875 242.9274 0071832 240.8351 118.5618 13.96002198973725
0 COSMOS 1375 DEB
1 18507U 82055BG  24187.32754250 -.00000052  00000-0  31751-4 0  9990
2 18507  65.8322 160.8460 0036918  44.8534  67.8760 13.66243237 99839
0 SL-8 DEB *
1 18509U 82051E   24187.62972656  .00002869  00000-0  64361-3 0  9992
2 18509  74.0051 271.1937 0007061  97.6770  20.6714 14.57041546973828
0 SL-8 DEB *
1 18510U 82051F   24187.55964623  .00003080  00000-0  70977-3 0  9997
2 18510  73.9928 286.6611 0011595 178.1943 194.4537 14.55730861985396
0 SL-8 DEB *
1 18512U 77119E   24187.07567374  .00007522  00000-0  90881-3 0  9998
2 18512  74.0274 192.0790 0005714 251.5732 183.0048 14.83886655102037
0 THORAD AGENA D DEB
1 18513U 70025PN  24187.45248065  .00002898  00000-0  13182-2 0  9992
2 18513  99.7709   4.8368 0051716 276.0905 138.9650 14.21960126 23312
0 COSMOS 374 DEB
1 18517U 70089DD  24187.36548034  .00023818  00000-0  39459-2 0  9995
2 18517  62.3931 168.9820 0417379  25.4727 336.6268 14.25877068771119
0 COSMOS 886 DEB
1 18518U 76126BW  24186.95786454  .00001054  00000-0  15764-2 0  9999
2 18518  65.7550 183.5915 0728889 344.2362  32.5252 12.80188814657571
0 SL-8 DEB *
1 18519U 84019D   24187.56990359  .00003317  00000-0  62341-3 0  9997
2 18519  74.0440 240.8895 0008534  80.6616 279.5517 14.65051649956599
0 SCOUT G-1 DEB
1 18525U 86088D   24186.72329093  .00000376  00000-0  31891-3 0  9998
2 18525  89.9313 348.6076 0006982 105.8758 266.7001 13.85808368899568
0 SL-8 DEB
1 18526U 87049C   24187.25257486  .00003297  00000-0  70036-3 0  9991
2 18526  74.0372 120.0544 0004971 219.6739 290.6567 14.59498796955300
0 SL-16 DEB
1 18527U 87027E   24187.52858468  .00000155  00000-0  17914-3 0  9991
2 18527  70.9961 244.2408 0195438 202.8720 156.3591 13.75500611871322
0 SCOUT G-1 DEB
1 18530U 87080F   24186.34364907  .00000223  00000-0  30190-3 0  9990
2 18530  90.3419 149.9300 0083511 270.7619 245.2471 13.55877036818761
0 OPS 4682 DEB
1 18533U 65027AD  24187.47832337  .00000229  00000-0  78254-3 0  9991
2 18533  90.2400 350.8000 0024875 190.4128 239.8023 12.95764723801927
0 OPS 4682 DEB
1 18534U 65027AE  24186.97829740  .00000570  00000-0  19877-2 0  9994
2 18534  90.2526   6.7856 0027863 178.3966 334.0715 12.95644277748925
0 OPS 4682 DEB
1 18538U 65027AF  24186.91992302  .00000292  00000-0  10133-2 0  9994
2 18538  90.2420 348.1215 0027520 232.1464 280.0867 12.95000798403465
0 THORAD DELTA 1 DEB
1 18539U 74089EZ  24187.24764802  .00000199  00000-0  15160-2 0  9993
2 18539 101.5663 108.2935 0031184  52.0392 103.5927 12.53743463503346
0 DELTA 1 DEB
1 18540U 76077FC  24187.05213367  .00017605  00000-0  10098+0 0  9990
2 18540 103.6824 220.3487 0479115 129.2639 294.7651 12.31043299527461
0 SL-8 DEB
1 18545U 86100C   24187.19353113  .00003518  00000-0  20321-2 0  9993
2 18545  82.9223 332.9108 0015614 138.8837  36.4350 14.08703151905186
0 COSMOS 249 DEB
1 18549U 68091DE  24187.14916579  .00002808  00000-0  31418-2 0  9992
2 18549  62.2123 115.5524 0698282 115.0789   1.9174 12.98147311536827
0 SL-16 DEB
1 18550U 87027F   24187.54728590  .00000225  00000-0  23255-3 0  9994
2 18550  71.0241 134.7340 0181878  19.9802 340.8302 13.78946609875867
0 COSMOS 249 DEB
1 18551U 68091DF  24187.40329306  .00001948  00000-0  84481-3 0  9993
2 18551  62.2919 231.6705 0739491  31.2672 344.7399 13.33837115551329
0 SL-8 DEB
1 18552U 86086C   24187.43665167  .00003845  00000-0  18334-2 0  9990
2 18552  82.9206 343.1042 0027393 295.0378  93.6898 14.18864392921815
0 COSMOS 252 DEB
1 18556U 68097EP  24187.36995487  .00013765  00000-0  71223-2 0  9997
2 18556  62.1897 167.7747 0496135  74.2001 291.3139 13.66266379399852
0 COSMOS 1375 DEB
1 18560U 82055BH  24187.02288299  .00000136  00000-0  24457-3 0  9997
2 18560  65.8324  43.9984 0038718  21.7993 126.7393 13.69688621840840
0 SCOUT G-1 DEB
1 18561U 87080G   24187.49493737  .00000495  00000-0  70980-3 0  9997
2 18561  90.3802  83.4723 0110114 335.7619 202.0567 13.52437831811115
0 SCOUT G-1 DEB
1 18562U 87080H   24186.91164865  .00000288  00000-0  46784-3 0  9996
2 18562  89.9274 160.2629 0180568  20.1964  40.7725 13.39681590795426
